start=new Date('2021-10-13T00:00:00.000Z').valueOf();
sats=[{"SITE":"AFETR","MEAN_ANOMALY":"287.4174","REV_AT_EPOCH":"3436","NORAD_CAT_ID":"47795","OBJECT_TYPE":"PAYLOAD","BSTAR":"0.00004383500000","EPOCH":"2021-10-12T07:59:37.758624","TIME_SYSTEM":"UTC","RA_OF_ASC_NODE":"256.2921","MEAN_ELEMENT_THEORY":"SGP4","EPHEMERIS_TYPE":"0","MEAN_MOTION_DOT":"0.00000372","TLE_LINE1":"1 47795U 21018J   21285.33307591  .00000372  00000-0  43835-4 0  9992","CENTER_NAME":"EARTH","INCLINATION":"53.0558","OBJECT_ID":"2021-018J","ARG_OF_PERICENTER":"72.6963","APOAPSIS":"548.145","MEAN_MOTION":"15.06401727","SEMIMAJOR_AXIS":"6925.343","FILE":"3158851","RCS_SIZE":"LARGE","PERIOD":"95.592","ECCENTRICITY":"0.00013520","MEAN_MOTION_DDOT":"0.0000000000000","ELEMENT_SET_NO":"999","OBJECT_NAME":"STARLINK-2347","LAUNCH_DATE":"2021-03-11","DECAY_DATE":null,"COUNTRY_CODE":"US","REF_FRAME":"TEME","GP_ID":"186983060","TLE_LINE2":"2 47795  53.0558 256.2921 0001352  72.6963 287.4174 15.06401727 34363","CLASSIFICATION_TYPE":"U","PERIAPSIS":"546.272"},{"ARG_OF_PERICENTER":"67.6777","OBJECT_ID":"2021-018K","INCLINATION":"53.0558","CENTER_NAME":"EARTH","MEAN_MOTION_DOT":"0.00002819","TLE_LINE1":"1 47796U 21018K   21285.61320692  .00002819  00000-0  20802-3 0  9997","EPHEMERIS_TYPE":"0","MEAN_ELEMENT_THEORY":"SGP4","RA_OF_ASC_NODE":"255.0404","TIME_SYSTEM":"UTC","BSTAR":"0.00020802000000","EPOCH":"2021-10-12T14:43:01.077888","OBJECT_TYPE":"PAYLOAD","NORAD_CAT_ID":"47796","REV_AT_EPOCH":"3435","MEAN_ANOMALY":"292.4347","SITE":"AFETR","CLASSIFICATION_TYPE":"U","TLE_LINE2":"2 47796  53.0558 255.0404 0001274  67.6777 292.4347 15.06408370 34355","PERIAPSIS":"546.306","GP_ID":"187015421","REF_FRAME":"TEME","COUNTRY_CODE":"US","DECAY_DATE":null,"LAUNCH_DATE":"2021-03-11","OBJECT_NAME":"STARLINK-2373","ELEMENT_SET_NO":"999","ECCENTRICITY":"0.00012740","MEAN_MOTION_DDOT":"0.0000000000000","PERIOD":"95.592","RCS_SIZE":"LARGE","FILE":"3159338","SEMIMAJOR_AXIS":"6925.323","MEAN_MOTION":"15.06408370","APOAPSIS":"548.070"},{"APOAPSIS":"548.227","MEAN_MOTION":"15.06394780","SEMIMAJOR_AXIS":"6925.365","FILE":"3159338","PERIOD":"95.592","RCS_SIZE":"MEDIUM","ECCENTRICITY":"0.00014400","MEAN_MOTION_DDOT":"0.0000000000000","ELEMENT_SET_NO":"999","OBJECT_NAME":"STARLINK-2377","DECAY_DATE":null,"LAUNCH_DATE":"2021-03-11","COUNTRY_CODE":"US","REF_FRAME":"TEME","GP_ID":"187016171","PERIAPSIS":"546.232","TLE_LINE2":"2 47797  53.0547 279.5679 0001440  76.9110 283.2040 15.06394780 34018","CLASSIFICATION_TYPE":"U","SITE":"AFETR","MEAN_ANOMALY":"283.2040","REV_AT_EPOCH":"3401","NORAD_CAT_ID":"47797","OBJECT_TYPE":"PAYLOAD","BSTAR":"0.00000644730000","EPOCH":"2021-10-12T17:10:58.991520","TIME_SYSTEM":"UTC","MEAN_ELEMENT_THEORY":"SGP4","RA_OF_ASC_NODE":"279.5679","MEAN_MOTION_DOT":"-0.00000185","TLE_LINE1":"1 47797U 21018L   21285.71596055 -.00000185  00000-0  64473-5 0  9996","EPHEMERIS_TYPE":"0","CENTER_NAME":"EARTH","OBJECT_ID":"2021-018L","INCLINATION":"53.0547","ARG_OF_PERICENTER":"76.9110"},{"MEAN_ANOMALY":"281.8892","REV_AT_EPOCH":"3435","SITE":"AFETR","OBJECT_TYPE":"PAYLOAD","NORAD_CAT_ID":"47798","TIME_SYSTEM":"UTC","BSTAR":"0.00011392000000","EPOCH":"2021-10-12T14:58:57.020448","MEAN_MOTION_DOT":"0.00001416","TLE_LINE1":"1 47798U 21018M   21285.62427107  .00001416  00000-0  11392-3 0  9995","EPHEMERIS_TYPE":"0","MEAN_ELEMENT_THEORY":"SGP4","RA_OF_ASC_NODE":"254.9828","OBJECT_ID":"2021-018M","INCLINATION":"53.0552","CENTER_NAME":"EARTH","ARG_OF_PERICENTER":"78.2263","APOAPSIS":"548.227","SEMIMAJOR_AXIS":"6925.338","MEAN_MOTION":"15.06403596","FILE":"3159338","MEAN_MOTION_DDOT":"0.0000000000000","ECCENTRICITY":"0.00014800","PERIOD":"95.592","RCS_SIZE":"LARGE","ELEMENT_SET_NO":"999","DECAY_DATE":null,"LAUNCH_DATE":"2021-03-11","OBJECT_NAME":"STARLINK-2379","COUNTRY_CODE":"US","PERIAPSIS":"546.178","TLE_LINE2":"2 47798  53.0552 254.9828 0001480  78.2263 281.8892 15.06403596 34358","CLASSIFICATION_TYPE":"U","GP_ID":"187014919","REF_FRAME":"TEME"},{"TLE_LINE1":"1 47799U 21018N   21285.62058845  .00000153  00000-0  29171-4 0  9997","MEAN_MOTION_DOT":"0.00000153","EPHEMERIS_TYPE":"0","MEAN_ELEMENT_THEORY":"SGP4","RA_OF_ASC_NODE":"255.0116","TIME_SYSTEM":"UTC","BSTAR":"0.00002917100000","EPOCH":"2021-10-12T14:53:38.842080","ARG_OF_PERICENTER":"81.7374","OBJECT_ID":"2021-018N","INCLINATION":"53.0572","CENTER_NAME":"EARTH","REV_AT_EPOCH":"3434","MEAN_ANOMALY":"278.3770","SITE":"AFETR","OBJECT_TYPE":"PAYLOAD","NORAD_CAT_ID":"47799","DECAY_DATE":null,"LAUNCH_DATE":"2021-03-11","OBJECT_NAME":"STARLINK-2380","ELEMENT_SET_NO":"999","PERIAPSIS":"546.273","TLE_LINE2":"2 47799  53.0572 255.0116 0001364  81.7374 278.3770 15.06398614 34345","CLASSIFICATION_TYPE":"U","GP_ID":"187014670","REF_FRAME":"TEME","COUNTRY_CODE":"US","SEMIMAJOR_AXIS":"6925.353","MEAN_MOTION":"15.06398614","APOAPSIS":"548.162","ECCENTRICITY":"0.00013640","MEAN_MOTION_DDOT":"0.0000000000000","PERIOD":"95.592","RCS_SIZE":"LARGE","FILE":"3159338"},{"MEAN_ANOMALY":"289.3411","REV_AT_EPOCH":"3435","SITE":"AFETR","OBJECT_TYPE":"PAYLOAD","NORAD_CAT_ID":"47800","TIME_SYSTEM":"UTC","BSTAR":"0.00020582000000","EPOCH":"2021-10-12T15:25:29.213472","EPHEMERIS_TYPE":"0","MEAN_MOTION_DOT":"0.00002786","TLE_LINE1":"1 47800U 21018P   21285.64269923  .00002786  00000-0  20582-3 0  9993","RA_OF_ASC_NODE":"254.9043","MEAN_ELEMENT_THEORY":"SGP4","INCLINATION":"53.0555","OBJECT_ID":"2021-018P","CENTER_NAME":"EARTH","ARG_OF_PERICENTER":"70.7746","APOAPSIS":"548.271","MEAN_MOTION":"15.06407537","SEMIMAJOR_AXIS":"6925.325","FILE":"3159338","ECCENTRICITY":"0.00015600","MEAN_MOTION_DDOT":"0.0000000000000","RCS_SIZE":"LARGE","PERIOD":"95.592","ELEMENT_SET_NO":"999","LAUNCH_DATE":"2021-03-11","DECAY_DATE":null,"OBJECT_NAME":"STARLINK-2381","COUNTRY_CODE":"US","CLASSIFICATION_TYPE":"U","TLE_LINE2":"2 47800  53.0555 254.9043 0001560  70.7746 289.3411 15.06407537 34355","PERIAPSIS":"546.110","REF_FRAME":"TEME","GP_ID":"187015921"},{"APOAPSIS":"548.016","MEAN_MOTION":"15.06411119","SEMIMAJOR_AXIS":"6925.314","FILE":"3159338","RCS_SIZE":"LARGE","PERIOD":"95.591","ECCENTRICITY":"0.00012080","MEAN_MOTION_DDOT":"0.0000000000000","ELEMENT_SET_NO":"999","OBJECT_NAME":"STARLINK-2382","LAUNCH_DATE":"2021-03-11","DECAY_DATE":null,"COUNTRY_CODE":"US","REF_FRAME":"TEME","GP_ID":"187015672","PERIAPSIS":"546.343","TLE_LINE2":"2 47801  53.0553 259.7989 0001208  51.8622 308.2476 15.06411119 34294","CLASSIFICATION_TYPE":"U","SITE":"AFETR","REV_AT_EPOCH":"3429","MEAN_ANOMALY":"308.2476","NORAD_CAT_ID":"47801","OBJECT_TYPE":"PAYLOAD","BSTAR":"0.00017611000000","EPOCH":"2021-10-12T15:57:57.493728","TIME_SYSTEM":"UTC","RA_OF_ASC_NODE":"259.7989","MEAN_ELEMENT_THEORY":"SGP4","EPHEMERIS_TYPE":"0","TLE_LINE1":"1 47801U 21018Q   21285.66524877  .00002343  00000-0  17611-3 0  9996","MEAN_MOTION_DOT":"0.00002343","CENTER_NAME":"EARTH","INCLINATION":"53.0553","OBJECT_ID":"2021-018Q","ARG_OF_PERICENTER":"51.8622"},{"MEAN_MOTION":"15.06407431","SEMIMAJOR_AXIS":"6925.326","APOAPSIS":"550.882","RCS_SIZE":"LARGE","PERIOD":"95.592","ECCENTRICITY":"0.00053300","MEAN_MOTION_DDOT":"0.0000000000000","FILE":"3159338","OBJECT_NAME":"STARLINK-2383","LAUNCH_DATE":"2021-03-11","DECAY_DATE":null,"ELEMENT_SET_NO":"999","GP_ID":"187014420","REF_FRAME":"TEME","TLE_LINE2":"2 47802  53.0556 279.6111 0005330  24.3927 335.7314 15.06407431 34028","CLASSIFICATION_TYPE":"U","PERIAPSIS":"543.500","COUNTRY_CODE":"US","SITE":"AFETR","MEAN_ANOMALY":"335.7314","REV_AT_EPOCH":"3402","NORAD_CAT_ID":"47802","OBJECT_TYPE":"PAYLOAD","RA_OF_ASC_NODE":"279.6111","MEAN_ELEMENT_THEORY":"SGP4","EPHEMERIS_TYPE":"0","TLE_LINE1":"1 47802U 21018R   21285.72333105  .00001951  00000-0  14989-3 0  9995","MEAN_MOTION_DOT":"0.00001951","BSTAR":"0.00014989000000","EPOCH":"2021-10-12T17:21:35.802720","TIME_SYSTEM":"UTC","ARG_OF_PERICENTER":"24.3927","CENTER_NAME":"EARTH","INCLINATION":"53.0556","OBJECT_ID":"2021-018R"},{"INCLINATION":"53.0564","OBJECT_ID":"2021-018S","CENTER_NAME":"EARTH","ARG_OF_PERICENTER":"70.8379","TIME_SYSTEM":"UTC","BSTAR":"0.00010192000000","EPOCH":"2021-10-12T15:41:23.766720","EPHEMERIS_TYPE":"0","MEAN_MOTION_DOT":"0.00001237","TLE_LINE1":"1 47803U 21018S   21285.65374730  .00001237  00000-0  10192-3 0  9996","RA_OF_ASC_NODE":"254.8574","MEAN_ELEMENT_THEORY":"SGP4","OBJECT_TYPE":"PAYLOAD","NORAD_CAT_ID":"47803","MEAN_ANOMALY":"289.2751","REV_AT_EPOCH":"3435","SITE":"AFETR","COUNTRY_CODE":"US","TLE_LINE2":"2 47803  53.0564 254.8574 0001300  70.8379 289.2751 15.06408960 34358","PERIAPSIS":"546.286","CLASSIFICATION_TYPE":"U","GP_ID":"187015170","REF_FRAME":"TEME","ELEMENT_SET_NO":"999","LAUNCH_DATE":"2021-03-11","DECAY_DATE":null,"OBJECT_NAME":"STARLINK-2384","FILE":"3159338","ECCENTRICITY":"0.00013000","MEAN_MOTION_DDOT":"0.0000000000000","RCS_SIZE":"LARGE","PERIOD":"95.592","APOAPSIS":"548.086","MEAN_MOTION":"15.06408960","SEMIMAJOR_AXIS":"6925.321"},{"APOAPSIS":"548.178","SEMIMAJOR_AXIS":"6925.333","MEAN_MOTION":"15.06404925","FILE":"3158851","PERIOD":"95.592","RCS_SIZE":"MEDIUM","ECCENTRICITY":"0.00014150","MEAN_MOTION_DDOT":"0.0000000000000","ELEMENT_SET_NO":"999","OBJECT_NAME":"STARLINK-2385","DECAY_DATE":null,"LAUNCH_DATE":"2021-03-11","COUNTRY_CODE":"US","GP_ID":"186981809","REF_FRAME":"TEME","TLE_LINE2":"2 47804  53.0552 256.2725 0001415  66.4180 293.6957 15.06404925 34307","CLASSIFICATION_TYPE":"U","PERIAPSIS":"546.219","SITE":"AFETR","REV_AT_EPOCH":"3430","MEAN_ANOMALY":"293.6957","NORAD_CAT_ID":"47804","OBJECT_TYPE":"PAYLOAD","EPOCH":"2021-10-12T08:04:56.289504","BSTAR":"0.00012157000000","TIME_SYSTEM":"UTC","MEAN_ELEMENT_THEORY":"SGP4","RA_OF_ASC_NODE":"256.2725","MEAN_MOTION_DOT":"0.00001530","TLE_LINE1":"1 47804U 21018T   21285.33676261  .00001530  00000-0  12157-3 0  9995","EPHEMERIS_TYPE":"0","CENTER_NAME":"EARTH","OBJECT_ID":"2021-018T","INCLINATION":"53.0552","ARG_OF_PERICENTER":"66.4180"}];
